{
  "type": "FeatureCollection",
  "features": [
    {
      "type": "Feature",
      "properties": {
        "norad_id": 36744,
        "name": "COMS 1",
        "group": "weather",
        "lat": 1.3066367824590248,
        "lon": 95.27763064770018,
        "alt_km": 35790.96982525591,
        "timestamp": "2025-12-06T16:45:42.370079+00:00",
        "meta_object_name": "COMS 1",
        "meta_object_id": "2010-032A",
        "meta_epoch": "2025-12-06T06:07:51.786336",
        "meta_mean_motion": 1.00271567,
        "meta_eccentricity": 0.00011756,
        "meta_inclination": 4.3249,
        "meta_ra_of_asc_node": 78.0702,
        "meta_arg_of_pericenter": 188.9834,
        "meta_mean_anomaly": 28.3819,
        "meta_ephemeris_type": 0,
        "meta_classification_type": "U",
        "meta_norad_cat_id": 36744,
        "meta_element_set_no": 999,
        "meta_rev_at_epoch": 4915,
        "meta_bstar": 0,
        "meta_mean_motion_dot": -3.38e-06,
        "meta_mean_motion_ddot": 0,
        "tle_line1": "1 36744U 10032A   25340.25546049 -.00000338  00000+0  00000+0 0  9992",
        "tle_line2": "2 36744   4.3249  78.0702 0001175 188.9834  28.3819  1.00271567 49156"
      },
      "geometry": {
        "type": "Point",
        "coordinates": [
          95.27763064770018,
          1.3066367824590248
        ]
      }
    },
    {
      "type": "Feature",
      "properties": {
        "norad_id": 37214,
        "name": "FENGYUN 3B",
        "group": "weather",
        "lat": -60.52170071412973,
        "lon": -175.63330353871953,
        "alt_km": 861.1311359291549,
        "timestamp": "2025-12-06T16:45:42.370091+00:00",
        "meta_object_name": "FENGYUN 3B",
        "meta_object_id": "2010-059A",
        "meta_epoch": "2025-12-06T07:25:16.629600",
        "meta_mean_motion": 14.1478709,
        "meta_eccentricity": 0.0022309,
        "meta_inclination": 98.9918,
        "meta_ra_of_asc_node": 20.2415,
        "meta_arg_of_pericenter": 15.9448,
        "meta_mean_anomaly": 44.8746,
        "meta_ephemeris_type": 0,
        "meta_classification_type": "U",
        "meta_norad_cat_id": 37214,
        "meta_element_set_no": 999,
        "meta_rev_at_epoch": 78015,
        "meta_bstar": 0.00013494726,
        "meta_mean_motion_dot": 2.15e-06,
        "meta_mean_motion_ddot": 0,
        "tle_line1": "1 37214U 10059A   25340.30922025  .00000215  00000+0  13495-3 0  9991",
        "tle_line2": "2 37214  98.9918  20.2415 0022309  15.9448  44.8746 14.14787090780159"
      },
      "geometry": {
        "type": "Point",
        "coordinates": [
          -175.63330353871953,
          -60.52170071412973
        ]
      }
    },
    {
      "type": "Feature",
      "properties": {
        "norad_id": 37849,
        "name": "SUOMI NPP",
        "group": "weather",
        "lat": -19.656111174151423,
        "lon": -78.74221932310617,
        "alt_km": 833.350417870929,
        "timestamp": "2025-12-06T16:45:42.370102+00:00",
        "meta_object_name": "SUOMI NPP",
        "meta_object_id": "2011-061A",
        "meta_epoch": "2025-12-06T06:42:19.005696",
        "meta_mean_motion": 14.19511444,
        "meta_eccentricity": 0.00020201,
        "meta_inclination": 98.7763,
        "meta_ra_of_asc_node": 277.6795,
        "meta_arg_of_pericenter": 131.5492,
        "meta_mean_anomaly": 228.5857,
        "meta_ephemeris_type": 0,
        "meta_classification_type": "U",
        "meta_norad_cat_id": 37849,
        "meta_element_set_no": 999,
        "meta_rev_at_epoch": 73107,
        "meta_bstar": 0.0001278621,
        "meta_mean_motion_dot": 2.25e-06,
        "meta_mean_motion_ddot": 0,
        "tle_line1": "1 37849U 11061A   25340.27938664  .00000225  00000+0  12786-3 0  9994",
        "tle_line2": "2 37849  98.7763 277.6795 0002020 131.5492 228.5857 14.19511444731074"
      },
      "geometry": {
        "type": "Point",
        "coordinates": [
          -78.74221932310617,
          -19.656111174151423
        ]
      }
    },
    {
      "type": "Feature",
      "properties": {
        "norad_id": 38552,
        "name": "METEOSAT-10 (MSG-3)",
        "group": "weather",
        "lat": -4.208271931502074,
        "lon": -32.727951250158945,
        "alt_km": 35783.35756603477,
        "timestamp": "2025-12-06T16:45:42.370115+00:00",
        "meta_object_name": "METEOSAT-10 (MSG-3)",
        "meta_object_id": "2012-035B",
        "meta_epoch": "2025-12-06T01:40:55.382880",
        "meta_mean_motion": 1.0027296,
        "meta_eccentricity": 8.777e-05,
        "meta_inclination": 4.2125,
        "meta_ra_of_asc_node": 61.7338,
        "meta_arg_of_pericenter": 227.7911,
        "meta_mean_anomaly": 170.9393,
        "meta_ephemeris_type": 0,
        "meta_classification_type": "U",
        "meta_norad_cat_id": 38552,
        "meta_element_set_no": 999,
        "meta_rev_at_epoch": 4892,
        "meta_bstar": 0,
        "meta_mean_motion_dot": 0,
        "meta_mean_motion_ddot": 0,
        "tle_line1": "1 38552U 12035B   25340.07008545  .00000000  00000+0  00000+0 0  9995",
        "tle_line2": "2 38552   4.2125  61.7338 0000877 227.7911 170.9393  1.00272960 48920"
      },
      "geometry": {
        "type": "Point",
        "coordinates": [
          -32.727951250158945,
          -4.208271931502074
        ]
      }
    },
    {
      "type": "Feature",
      "properties": {
        "norad_id": 38771,
        "name": "METOP-B",
        "group": "weather",
        "lat": 28.174632349246014,
        "lon": -144.54682726999596,
        "alt_km": 817.4281795404477,
        "timestamp": "2025-12-06T16:45:42.370126+00:00",
        "meta_object_name": "METOP-B",
        "meta_object_id": "2012-049A",
        "meta_epoch": "2025-12-06T05:54:55.644768",
        "meta_mean_motion": 14.21404836,
        "meta_eccentricity": 0.0002626,
        "meta_inclination": 98.6808,
        "meta_ra_of_asc_node": 30.3151,
        "meta_arg_of_pericenter": 158.5858,
        "meta_mean_anomaly": 201.543,
        "meta_ephemeris_type": 0,
        "meta_classification_type": "U",
        "meta_norad_cat_id": 38771,
        "meta_element_set_no": 999,
        "meta_rev_at_epoch": 68585,
        "meta_bstar": 0.00016390238,
        "meta_mean_motion_dot": 3.14e-06,
        "meta_mean_motion_ddot": 0,
        "tle_line1": "1 38771U 12049A   25340.24647737  .00000314  00000+0  16390-3 0  9995",
        "tle_line2": "2 38771  98.6808  30.3151 0002626 158.5858 201.5430 14.21404836685856"
      },
      "geometry": {
        "type": "Point",
        "coordinates": [
          -144.54682726999596,
          28.174632349246014
        ]
      }
    },
    {
      "type": "Feature",
      "properties": {
        "norad_id": 39216,
        "name": "INSAT-3D",
        "group": "weather",
        "lat": 0.310672852604127,
        "lon": 96.676515667247,
        "alt_km": 35792.22197162897,
        "timestamp": "2025-12-06T16:45:42.370138+00:00",
        "meta_object_name": "INSAT-3D",
        "meta_object_id": "2013-038B",
        "meta_epoch": "2025-12-06T05:43:20.225856",
        "meta_mean_motion": 1.00272493,
        "meta_eccentricity": 0.00017682,
        "meta_inclination": 1.4271,
        "meta_ra_of_asc_node": 85.0642,
        "meta_arg_of_pericenter": 158.8992,
        "meta_mean_anomaly": 46.6903,
        "meta_ephemeris_type": 0,
        "meta_classification_type": "U",
        "meta_norad_cat_id": 39216,
        "meta_element_set_no": 999,
        "meta_rev_at_epoch": 4514,
        "meta_bstar": 0,
        "meta_mean_motion_dot": -3.31e-06,
        "meta_mean_motion_ddot": 0,
        "tle_line1": "1 39216U 13038B   25340.23842854 -.00000331  00000+0  00000+0 0  9992",
        "tle_line2": "2 39216   1.4271  85.0642 0001768 158.8992  46.6903  1.00272493 45147"
      },
      "geometry": {
        "type": "Point",
        "coordinates": [
          96.676515667247,
          0.310672852604127
        ]
      }
    },
    {
      "type": "Feature",
      "properties": {
        "norad_id": 39260,
        "name": "FENGYUN 3C",
        "group": "weather",
        "lat": 17.2743617080439,
        "lon": 141.33069788768455,
        "alt_km": 834.1326168021214,
        "timestamp": "2025-12-06T16:45:42.370150+00:00",
        "meta_object_name": "FENGYUN 3C",
        "meta_object_id": "2013-052A",
        "meta_epoch": "2025-12-06T05:49:06.835872",
        "meta_mean_motion": 14.15693374,
        "meta_eccentricity": 0.00139488,
        "meta_inclination": 98.4757,
        "meta_ra_of_asc_node": 318.2393,
        "meta_arg_of_pericenter": 215.4529,
        "meta_mean_anomaly": 144.5719,
        "meta_ephemeris_type": 0,
        "meta_classification_type": "U",
        "meta_norad_cat_id": 39260,
        "meta_element_set_no": 999,
        "meta_rev_at_epoch": 63126,
        "meta_bstar": 0.00013982619,
        "meta_mean_motion_dot": 2.33e-06,
        "meta_mean_motion_ddot": 0,
        "tle_line1": "1 39260U 13052A   25340.24244023  .00000233  00000+0  13983-3 0  9990",
        "tle_line2": "2 39260  98.4757 318.2393 0013948 215.4529 144.5719 14.15693374631266"
      },
      "geometry": {
        "type": "Point",
        "coordinates": [
          141.33069788768455,
          17.2743617080439
        ]
      }
    }
  ]
}